NORAD_CAT_ID,OBJECT_NAME,OBJECT_TYPE,EPOCH,MEAN_MOTION,ECCENTRICITY,INCLINATION,RA_OF_ASC_NODE,ARG_OF_PERICENTER,MEAN_ANOMALY,BSTAR,MEAN_MOTION_DOT,MEAN_MOTION_DDOT,TLE_LINE0,TLE_LINE1,TLE_LINE2,SEMIMAJOR_AXIS,PERIOD,APOGEE,PERIGEE,DECAYED
52096.0,STARLINK-3717,PAYLOAD,2023-10-06 17:50:51,15.08840507,0.0001352,53.2152,91.7979,87.2957,272.819,0.00012488,1.7e-05,0.0,0 STARLINK-3717,1 52096U 22029J   23279.74364807  .00001700  00000-0  12488-3 0  9993,2 52096  53.2152  91.7979 0001352  87.2957 272.8190 15.08840507 87184,6917.879,95.438,540.679,538.809,0.0
52096.0,STARLINK-3717,PAYLOAD,2023-10-06 19:26:14,15.08842857,0.0001371,53.2156,91.4994,90.6869,269.428,0.00016064,2.27e-05,0.0,0 STARLINK-3717,1 52096U 22029J   23279.80988694  .00002270  00000-0  16064-3 0  9993,2 52096  53.2156  91.4994 0001371  90.6869 269.4280 15.08842857 87196,6917.872,95.437,540.685,538.788,0.0
52096.0,STARLINK-3717,PAYLOAD,2023-10-07 11:20:05,15.08839663,0.0001405,53.2152,88.5275,85.7371,274.3781,0.00022473,3.29e-05,0.0,0 STARLINK-3717,1 52096U 22029J   23280.47229053  .00003290  00000-0  22473-3 0  9999,2 52096  53.2152  88.5275 0001405  85.7371 274.3781 15.08839663 87295,6917.881,95.438,540.718,538.774,0.0
52096.0,STARLINK-3717,PAYLOAD,2023-10-07 20:52:24,15.08850774,0.0001407,53.2155,86.7422,92.1292,267.9861,0.00037325,5.659e-05,0.0,0 STARLINK-3717,1 52096U 22029J   23280.86972612  .00005659  00000-0  37325-3 0  9991,2 52096  53.2155  86.7422 0001407  92.1292 267.9861 15.08850774 87358,6917.847,95.437,540.686,538.739,0.0
52096.0,STARLINK-3717,PAYLOAD,2023-10-08 11:10:52,15.08842366,0.0001334,53.2148,84.0674,86.8237,273.2908,0.00012109,1.64e-05,0.0,0 STARLINK-3717,1 52096U 22029J   23281.46588950  .00001640  00000-0  12109-3 0  9995,2 52096  53.2148  84.0674 0001334  86.8237 273.2908 15.08842366 87448,6917.873,95.437,540.661,538.815,0.0
52096.0,STARLINK-3717,PAYLOAD,2023-10-08 20:43:11,15.08850458,0.0001535,53.2158,82.281,86.6677,273.449,0.00027253,4.053e-05,0.0,0 STARLINK-3717,1 52096U 22029J   23281.86332615  .00004053  00000-0  27253-3 0  9991,2 52096  53.2158  82.2810 0001535  86.6677 273.4490 15.08850458 87506,6917.848,95.437,540.775,538.652,0.0
52096.0,STARLINK-3717,PAYLOAD,2023-10-09 14:12:26,15.08840479,0.0001569,53.2158,79.0092,101.5421,258.5748,7.0646e-05,8.37e-06,0.0,0 STARLINK-3717,1 52096U 22029J   23282.59196899  .00000837  00000-0  70646-4 0  9995,2 52096  53.2158  79.0092 0001569 101.5421 258.5748 15.08840479 87617,6917.879,95.438,540.829,538.659,0.0
52096.0,STARLINK-3717,PAYLOAD,2023-10-09 17:23:12,15.08846341,0.0001418,53.2156,78.4165,88.4609,271.6546,0.00018659,2.683e-05,0.0,0 STARLINK-3717,1 52096U 22029J   23282.72444799  .00002683  00000-0  18659-3 0  9991,2 52096  53.2156  78.4165 0001418  88.4609 271.6546 15.08846341 87631,6917.861,95.437,540.707,538.745,0.0
52096.0,STARLINK-3717,PAYLOAD,2023-10-09 20:33:58,15.08849068,0.0001437,53.2158,77.8209,88.2426,271.8731,0.00023663,3.481e-05,0.0,0 STARLINK-3717,1 52096U 22029J   23282.85692673  .00003481  00000-0  23663-3 0  9999,2 52096  53.2158  77.8209 0001437  88.2426 271.8731 15.08849068 87650,6917.853,95.437,540.712,538.724,0.0
52096.0,STARLINK-3717,PAYLOAD,2023-10-10 10:52:26,15.08840587,0.0001994,53.2165,75.1423,104.384,255.7374,3.8609e-05,3.26e-06,0.0,0 STARLINK-3717,1 52096U 22029J   23283.45309022  .00000326  00000-0  38609-4 0  9991,2 52096  53.2165  75.1423 0001994 104.3840 255.7374 15.08840587 87746,6917.879,95.438,541.123,538.364,0.0
52096.0,STARLINK-3717,PAYLOAD,2023-10-10 14:03:13,15.08839329,0.0001645,53.2178,74.5493,98.2619,261.856,2.3392e-05,8.4e-07,0.0,0 STARLINK-3717,1 52096U 22029J   23283.58557127  .00000084  00000-0  23392-4 0  9990,2 52096  53.2178  74.5493 0001645  98.2619 261.8560 15.08839329 87767,6917.882,95.438,540.885,538.609,0.0
52096.0,STARLINK-3717,PAYLOAD,2023-10-10 17:13:59,15.08841242,0.0001473,53.2171,73.9558,87.829,272.2871,6.4406e-05,7.37e-06,0.0,0 STARLINK-3717,1 52096U 22029J   23283.71805026  .00000737  00000-0  64406-4 0  9995,2 52096  53.2171  73.9558 0001473  87.8290 272.2871 15.08841242 87783,6917.877,95.437,540.761,538.723,0.0
52096.0,STARLINK-3717,PAYLOAD,2023-10-11 10:43:14,15.08835061,0.0001459,53.2179,70.6862,84.7368,275.379,9.5188e-05,1.227e-05,0.0,0 STARLINK-3717,1 52096U 22029J   23284.44669608  .00001227  00000-0  95188-4 0  9996,2 52096  53.2179  70.6862 0001459  84.7368 275.3790 15.08835061 87897,6917.895,95.438,540.77,538.751,0.0
52096.0,STARLINK-3717,PAYLOAD,2023-10-11 13:54:00,15.08838597,0.0001494,53.2174,70.0912,85.2965,274.8198,3.9885e-05,3.47e-06,0.0,0 STARLINK-3717,1 52096U 22029J   23284.57917474  .00000347  00000-0  39885-4 0  9991,2 52096  53.2174  70.0912 0001494  85.2965 274.8198 15.08838597 87916,6917.885,95.438,540.783,538.716,0.0
52096.0,STARLINK-3717,PAYLOAD,2023-10-12 13:44:47,15.08849171,0.0001495,53.2182,65.6314,91.9017,268.2146,3.3369e-06,-2.35e-06,0.0,0 STARLINK-3717,1 52096U 22029J   23285.57276963 -.00000235  00000-0  33369-5 0  9992,2 52096  53.2182  65.6314 0001495  91.9017 268.2146 15.08849171 88061,6917.852,95.437,540.752,538.683,0.0
52096.0,STARLINK-3717,PAYLOAD,2023-10-12 16:55:33,15.08859006,0.0001447,53.2179,65.0365,92.3291,267.7867,-9.8903e-05,-1.863e-05,0.0,0 STARLINK-3717,1 52096U 22029J   23285.70524328 -.00001863  00000-0 -98903-4 0  9991,2 52096  53.2179  65.0365 0001447  92.3291 267.7867 15.08859006 88087,6917.822,95.436,540.688,538.686,0.0
52096.0,STARLINK-3717,PAYLOAD,2023-10-13 02:27:52,15.08842184,0.0001371,53.2184,63.2521,92.153,267.9619,0.0001012,1.323e-05,0.0,0 STARLINK-3717,1 52096U 22029J   23286.10269282  .00001323  00000-0  10120-3 0  9994,2 52096  53.2184  63.2521 0001371  92.1530 267.9619 15.08842184 88140,6917.874,95.437,540.687,538.79,0.0
52096.0,STARLINK-3717,PAYLOAD,2023-10-13 13:35:35,15.08832953,0.0001235,53.217,61.1686,92.2139,267.8995,5.8525e-06,-1.95e-06,0.0,0 STARLINK-3717,1 52096U 22029J   23286.56637811 -.00000195  00000-0  58525-5 0  9991,2 52096  53.2170  61.1686 0001235  92.2139 267.8995 15.08832953 88216,6917.902,95.438,540.621,538.913,0.0
52096.0,STARLINK-3717,PAYLOAD,2023-10-13 16:46:20,15.08845994,0.0001322,53.2168,60.5753,83.94,276.1742,0.00012081,1.636e-05,0.0,0 STARLINK-3717,1 52096U 22029J   23286.69885258  .00001636  00000-0  12081-3 0  9990,2 52096  53.2168  60.5753 0001322  83.9400 276.1742 15.08845994 88230,6917.862,95.437,540.642,538.813,0.0
52096.0,STARLINK-3717,PAYLOAD,2023-10-14 13:26:21,15.08847066,0.0001341,53.2168,56.708,107.2122,252.9017,0.0001583,2.233e-05,0.0,0 STARLINK-3717,1 52096U 22029J   23287.55997028  .00002233  00000-0  15830-3 0  9994,2 52096  53.2168  56.7080 0001341 107.2122 252.9017 15.08847066 88365,6917.859,95.437,540.651,538.796,0.0
52096.0,STARLINK-3717,PAYLOAD,2023-10-14 18:12:30,15.08859775,0.0001438,53.2174,55.8154,84.1574,275.9582,0.00027048,4.022e-05,0.0,0 STARLINK-3717,1 52096U 22029J   23287.75868362  .00004022  00000-0  27048-3 0  9996,2 52096  53.2174  55.8154 0001438  84.1574 275.9582 15.08859775 88390,6917.82,95.436,540.68,538.69,0.0
52096.0,STARLINK-3717,PAYLOAD,2023-10-15 11:41:46,15.08828981,0.0001427,53.2162,52.5473,97.0752,263.0403,4.7756e-06,-2.12e-06,0.0,0 STARLINK-3717,1 52096U 22029J   23288.48734219 -.00000212  00000-0  47756-5 0  9998,2 52096  53.2162  52.5473 0001427  97.0752 263.0403 15.08828981 88502,6917.914,95.438,540.766,538.792,0.0
52096.0,STARLINK-3717,PAYLOAD,2023-10-15 14:52:32,15.08834552,0.0001396,53.2178,51.9497,98.9708,261.1443,-3.6196e-05,-8.64e-06,0.0,0 STARLINK-3717,1 52096U 22029J   23288.61981939 -.00000864  00000-0 -36196-4 0  9995,2 52096  53.2178  51.9497 0001396  98.9708 261.1443 15.08834552 88520,6917.897,95.438,540.728,538.796,0.0
52096.0,STARLINK-3717,PAYLOAD,2023-10-16 08:21:46,15.0883805,0.0001409,53.218,48.6778,112.8839,247.2302,5.0277e-05,5.12e-06,0.0,0 STARLINK-3717,1 52096U 22029J   23289.34845985  .00000512  00000-0  50277-4 0  9990,2 52096  53.2180  48.6778 0001409 112.8839 247.2302 15.08838050 88632,6917.886,95.438,540.726,538.777,0.0
52096.0,STARLINK-3717,PAYLOAD,2023-10-16 14:43:19,15.08850416,0.0001485,53.2174,47.4904,98.342,261.774,0.0001553,2.185e-05,0.0,0 STARLINK-3717,1 52096U 22029J   23289.61341507  .00002185  00000-0  15530-3 0  9991,2 52096  53.2174  47.4904 0001485  98.3420 261.7740 15.08850416 88672,6917.849,95.437,540.741,538.686,0.0
52096.0,STARLINK-3717,PAYLOAD,2023-10-17 11:23:20,15.08843583,0.0001481,53.2176,43.6261,97.4472,262.6688,0.0002594,3.843e-05,0.0,0 STARLINK-3717,1 52096U 22029J   23290.47454084  .00003843  00000-0  25940-3 0  9990,2 52096  53.2176  43.6261 0001481  97.4472 262.6688 15.08843583 88804,6917.869,95.437,540.759,538.71,0.0
52096.0,STARLINK-3717,PAYLOAD,2023-10-18 00:06:25,15.08844277,0.0001412,53.2184,41.2501,86.7099,273.4055,0.00019044,2.745e-05,0.0,0 STARLINK-3717,1 52096U 22029J   23291.00446087  .00002745  00000-0  19044-3 0  9992,2 52096  53.2184  41.2501 0001412  86.7099 273.4055 15.08844277 88881,6917.867,95.437,540.709,538.756,0.0
52096.0,STARLINK-3717,PAYLOAD,2023-10-18 11:14:08,15.08824569,0.0001416,53.2187,39.1658,72.9745,287.1402,-0.00020139,-3.49e-05,0.0,0 STARLINK-3717,1 52096U 22029J   23291.46815188 -.00003490  00000-0 -20139-3 0  9991,2 52096  53.2187  39.1658 0001416  72.9745 287.1402 15.08824569 88950,6917.928,95.439,540.772,538.813,0.0
52096.0,STARLINK-3717,PAYLOAD,2023-10-18 14:24:54,15.08834884,0.0001474,53.2183,38.5705,85.6576,274.4584,-1.6636e-05,-5.53e-06,0.0,0 STARLINK-3717,1 52096U 22029J   23291.60062837 -.00000553  00000-0 -16636-4 0  9997,2 52096  53.2183  38.5705 0001474  85.6576 274.4584 15.08834884 88972,6917.896,95.438,540.781,538.741,0.0
52096.0,STARLINK-3717,PAYLOAD,2023-10-18 23:57:12,15.08847681,0.0001689,53.2168,36.7886,123.7274,236.388,-1.8348e-05,-5.8e-06,0.0,0 STARLINK-3717,1 52096U 22029J   23291.99806152 -.00000580  00000-0 -18348-4 0  9997,2 52096  53.2168  36.7886 0001689 123.7274 236.3880 15.08847681 89035,6917.857,95.437,540.89,538.553,0.0
